{
  "norad_id": 65474,
  "name": "STARLINK-34998",
  "history": [
    {
      "epoch": "2026-05-06T21:01:02.055936Z",
      "apogee_km": 475.9505319021082,
      "perigee_km": 474.4181292525918,
      "latitude_deg": 1.9075335683963858e-05,
      "longitude_deg": 167.8214772017573,
      "height_km": 476.11097412623775,
      "semi_major_axis_km": 6853.32133057735,
      "eccentricity": 0.0001118,
      "inclination_deg": 53.1604,
      "raan_deg": 347.8101,
      "arg_perigee_deg": 92.118,
      "mean_anomaly_deg": 267.9949,
      "mean_motion_rev_day": 15.30210295
    },
    {
      "epoch": "2026-05-07T20:31:48.482400Z",
      "apogee_km": 476.1055903652259,
      "perigee_km": 474.17570737930237,
      "latitude_deg": -3.5672019190551467e-06,
      "longitude_deg": 169.6128729652689,
      "height_km": 475.80065477724054,
      "semi_major_axis_km": 6853.277648872264,
      "eccentricity": 0.0001408,
      "inclination_deg": 53.1616,
      "raan_deg": 343.2606,
      "arg_perigee_deg": 75.7131,
      "mean_anomaly_deg": 284.4026,
      "mean_motion_rev_day": 15.30224925
    },
    {
      "epoch": "2026-05-08T20:02:36.062304Z",
      "apogee_km": 475.9130878683536,
      "perigee_km": 474.4629242970659,
      "latitude_deg": -5.451382378344754e-05,
      "longitude_deg": 171.39762906164597,
      "height_km": 475.98165510278744,
      "semi_major_axis_km": 6853.3250060827095,
      "eccentricity": 0.0001058,
      "inclination_deg": 53.1613,
      "raan_deg": 338.7093,
      "arg_perigee_deg": 81.6831,
      "mean_anomaly_deg": 278.4289,
      "mean_motion_rev_day": 15.30209064
    },
    {
      "epoch": "2026-05-09T19:33:24.343776Z",
      "apogee_km": 476.1570142003184,
      "perigee_km": 474.29152926215284,
      "latitude_deg": -5.7804557751812994e-05,
      "longitude_deg": 173.17889024665783,
      "height_km": 476.1186154069932,
      "semi_major_axis_km": 6853.361271731235,
      "eccentricity": 0.0001361,
      "inclination_deg": 53.1632,
      "raan_deg": 334.1574,
      "arg_perigee_deg": 89.7569,
      "mean_anomaly_deg": 270.3587,
      "mean_motion_rev_day": 15.30196918
    },
    {
      "epoch": "2026-05-10T20:38:15.353088Z",
      "apogee_km": 475.9539578063386,
      "perigee_km": 474.4777456020811,
      "latitude_deg": -4.6423930142269914e-05,
      "longitude_deg": 151.0814253565603,
      "height_km": 476.1862519425102,
      "semi_major_axis_km": 6853.35285170421,
      "eccentricity": 0.0001077,
      "inclination_deg": 53.1608,
      "raan_deg": 329.3025,
      "arg_perigee_deg": 95.5952,
      "mean_anomaly_deg": 264.5171,
      "mean_motion_rev_day": 15.30199738
    },
    {
      "epoch": "2026-05-11T18:35:00.333888Z",
      "apogee_km": 476.1968965038068,
      "perigee_km": 474.23957824801164,
      "latitude_deg": -3.886511535262546e-06,
      "longitude_deg": 176.74645368674356,
      "height_km": 475.99417831439735,
      "semi_major_axis_km": 6853.3552373759085,
      "eccentricity": 0.0001428,
      "inclination_deg": 53.1599,
      "raan_deg": 325.0562,
      "arg_perigee_deg": 82.8434,
      "mean_anomaly_deg": 277.2729,
      "mean_motion_rev_day": 15.30198939
    },
    {
      "epoch": "2026-05-12T19:39:51.274080Z",
      "apogee_km": 476.34841895401405,
      "perigee_km": 474.0347352263889,
      "latitude_deg": 1.581711489359818e-05,
      "longitude_deg": 154.65038541905642,
      "height_km": 475.9113073969944,
      "semi_major_axis_km": 6853.328577090201,
      "eccentricity": 0.0001688,
      "inclination_deg": 53.1595,
      "raan_deg": 320.2024,
      "arg_perigee_deg": 81.162,
      "mean_anomaly_deg": 278.9572,
      "mean_motion_rev_day": 15.30207868
    },
    {
      "epoch": "2026-05-13T17:36:36.050112Z",
      "apogee_km": 476.20355855753314,
      "perigee_km": 474.20512422238335,
      "latitude_deg": -1.1867663550092426e-05,
      "longitude_deg": -179.68508222730108,
      "height_km": 475.8695423161284,
      "semi_major_axis_km": 6853.341341389958,
      "eccentricity": 0.0001458,
      "inclination_deg": 53.1606,
      "raan_deg": 315.9548,
      "arg_perigee_deg": 76.5307,
      "mean_anomaly_deg": 283.5856,
      "mean_motion_rev_day": 15.30203593
    },
    {
      "epoch": "2026-05-13T17:36:36.050976Z",
      "apogee_km": 476.20349002411876,
      "perigee_km": 474.2051927557968,
      "latitude_deg": -1.0952423731943731e-05,
      "longitude_deg": -179.68508515529763,
      "height_km": 475.86955827620216,
      "semi_major_axis_km": 6853.341341389958,
      "eccentricity": 0.00014579,
      "inclination_deg": 53.1606,
      "raan_deg": 315.9548,
      "arg_perigee_deg": 76.5307,
      "mean_anomaly_deg": 283.5856,
      "mean_motion_rev_day": 15.30203593
    },
    {
      "epoch": "2026-05-14T12:25:14.490048Z",
      "apogee_km": 476.3298842528948,
      "perigee_km": 474.0659535957766,
      "latitude_deg": -5.870836242472133e-06,
      "longitude_deg": -106.2586709658664,
      "height_km": 475.2092368865287,
      "semi_major_axis_km": 6853.334918924335,
      "eccentricity": 0.00016517,
      "inclination_deg": 53.1586,
      "raan_deg": 312.3139,
      "arg_perigee_deg": 38.4128,
      "mean_anomaly_deg": 321.699,
      "mean_motion_rev_day": 15.30205744
    }
  ]
}